[{"OBJECT_NAME":"STARLINK-3452","OBJECT_ID":"2022-016AG","EPOCH":"2026-03-09T21:18:14.286240","MEAN_MOTION":15.08837099,"ECCENTRICITY":0.00014157,"INCLINATION":53.2173,"RA_OF_ASC_NODE":318.2629,"ARG_OF_PERICENTER":86.1361,"MEAN_ANOMALY":273.9793,"EPHEMERIS_TYPE":0,"CLASSIFICATION_TYPE":"U","NORAD_CAT_ID":51744,"ELEMENT_SET_NO":999,"REV_AT_EPOCH":22359,"BSTAR":0.00028966342,"MEAN_MOTION_DOT":4.325e-5,"MEAN_MOTION_DDOT":0},{"OBJECT_NAME":"FALCON 9 DEB","OBJECT_ID":"2021-041BG","EPOCH":"2026-03-09T15:47:07.516032","MEAN_MOTION":15.0585876,"ECCENTRICITY":0.00124165,"INCLINATION":53.0346,"RA_OF_ASC_NODE":200.9185,"ARG_OF_PERICENTER":159.6872,"MEAN_ANOMALY":200.4613,"EPHEMERIS_TYPE":0,"CLASSIFICATION_TYPE":"U","NORAD_CAT_ID":48607,"ELEMENT_SET_NO":999,"REV_AT_EPOCH":26415,"BSTAR":0.00013916149,"MEAN_MOTION_DOT":1.762e-5,"MEAN_MOTION_DDOT":0}]
